SL-16 R/B               
1 22803U 93059B   26110.19031086 -.00000194  00000+0 -72387-4 0  9995
2 22803  70.9890 283.6090 0016087 153.8599 206.3341 14.17238586685418
ARIANE 40 R/B           
1 22830U 93061H   26110.10778001  .00000123  00000+0  60733-4 0  9996
2 22830  98.4851 178.1631 0011326 156.1171 204.0541 14.32881896700030
COSMOS 2278             
1 23087U 94023A   26110.18321813  .00000313  00000+0  18833-3 0  9997
2 23087  71.0521  88.2830 0010116 315.0532  44.9771 14.14383658650674
SL-16 R/B               
1 23088U 94023B   26110.06955427 -.00000246  00000+0 -10215-3 0  9992
2 23088  71.0010 343.9876 0005418 248.9300 111.1243 14.15016762651947
SL-16 R/B               
1 23343U 94074B   26110.31178400  .00000257  00000+0  40944-4 0  9991
2 23343  97.7048 139.4319 0008111  87.1735 283.6911 14.79451692693404
SL-16 R/B               
1 23405U 94077B   26110.17638245  .00000254  00000+0  15411-3 0  9992
2 23405  70.9817 265.2056 0000772 144.7666 215.3508 14.15569703622100
ARIANE 40+ R/B          
1 23561U 95021B   26110.16006150  .00000178  00000+0  70601-4 0  9996
2 23561  98.4437 181.0668 0007085  28.2386   0.7345 14.39800389625213
SL-16 R/B               
1 23705U 95058B   26110.18538329  .00000043  00000+0  46326-4 0  9994
2 23705  71.0200  93.1344 0010758  49.1847 311.0207 14.15505003573729
SL-16 R/B               
1 24298U 96051B   26110.17130853  .00000030  00000+0  42951-4 0  9991
2 24298  70.7589  87.4368 0012531  76.8895 283.3623 14.12426206527508
ORBVIEW 2 (SEASTAR)     
1 24883U 97037A   26110.30838870  .00000143  00000+0  66127-4 0  9991
2 24883  98.8635 275.7383 0001255 317.4331  42.6756 14.35522093514448
SL-16 R/B               
1 25400U 98043G   26110.12783647  .00000024  00000+0  29124-4 0  9990
2 25400  98.8321  63.8031 0008779 252.8523 107.1695 14.26058742444890
SL-16 R/B               
1 25407U 98045B   26110.24655077 -.00000195  00000+0 -74124-4 0  9998
2 25407  71.0095  94.1796 0009174 309.9620  50.0697 14.16198692432988
ISS (ZARYA)             
1 25544U 98067A   26110.13518311  .00007929  00000+0  15272-3 0  9999
2 25544  51.6328 227.4156 0006665 328.2959  31.7627 15.48842238562751
CZ-4B R/B               
1 25732U 99025C   26110.07106536  .00000022  00000+0  31290-4 0  9994
2 25732  98.6546 153.3561 0036345 224.5706 165.0326 14.18273170394036
OKEAN-O                 
1 25860U 99039A   26110.15338000  .00000398  00000+0  58939-4 0  9998
2 25860  97.9365 169.6058 0001357 115.8346 244.3007 14.80396237440529
SL-16 R/B               
1 25861U 99039B   26110.09436018  .00000377  00000+0  54451-4 0  9992
2 25861  97.9887 169.1111 0016011 120.7922 239.4869 14.81784757442995
DELTA 2 R/B             
1 25876U 99041E   26110.06538506  .00000174  00000+0  68381-4 0  9995
2 25876  51.7596 135.9872 0502520 110.4388 255.1230 14.11921070368873
