[{"OBJECT_NAME":"SL-16 R/B","OBJECT_ID":"1993-059B","EPOCH":"2026-04-20T04:34:02.858304","MEAN_MOTION":14.17238586,"ECCENTRICITY":0.00160878,"INCLINATION":70.989,"RA_OF_ASC_NODE":283.609,"ARG_OF_PERICENTER":153.8599,"MEAN_ANOMALY":206.3341,"EPHEMERIS_TYPE":0,"CLASSIFICATION_TYPE":"U","NORAD_CAT_ID":22803,"ELEMENT_SET_NO":999,"REV_AT_EPOCH":68541,"BSTAR":-7.2386725e-5,"MEAN_MOTION_DOT":-1.94e-6,"MEAN_MOTION_DDOT":0},{"OBJECT_NAME":"ARIANE 40 R/B","OBJECT_ID":"1993-061H","EPOCH":"2026-04-20T02:35:12.192864","MEAN_MOTION":14.32881896,"ECCENTRICITY":0.00113264,"INCLINATION":98.4851,"RA_OF_ASC_NODE":178.1631,"ARG_OF_PERICENTER":156.1171,"MEAN_ANOMALY":204.0541,"EPHEMERIS_TYPE":0,"CLASSIFICATION_TYPE":"U","NORAD_CAT_ID":22830,"ELEMENT_SET_NO":999,"REV_AT_EPOCH":70003,"BSTAR":6.0732515e-5,"MEAN_MOTION_DOT":1.23e-6,"MEAN_MOTION_DDOT":0},{"OBJECT_NAME":"COSMOS 2278","OBJECT_ID":"1994-023A","EPOCH":"2026-04-20T04:23:50.046432","MEAN_MOTION":14.14383658,"ECCENTRICITY":0.00101161,"INCLINATION":71.0521,"RA_OF_ASC_NODE":88.283,"ARG_OF_PERICENTER":315.0532,"MEAN_ANOMALY":44.9771,"EPHEMERIS_TYPE":0,"CLASSIFICATION_TYPE":"U","NORAD_CAT_ID":23087,"ELEMENT_SET_NO":999,"REV_AT_EPOCH":65067,"BSTAR":0.00018833446,"MEAN_MOTION_DOT":3.13e-6,"MEAN_MOTION_DDOT":0},{"OBJECT_NAME":"SL-16 R/B","OBJECT_ID":"1994-023B","EPOCH":"2026-04-20T01:40:09.488928","MEAN_MOTION":14.15016762,"ECCENTRICITY":0.0005418,"INCLINATION":71.001,"RA_OF_ASC_NODE":343.9876,"ARG_OF_PERICENTER":248.93,"MEAN_ANOMALY":111.1243,"EPHEMERIS_TYPE":0,"CLASSIFICATION_TYPE":"U","NORAD_CAT_ID":23088,"ELEMENT_SET_NO":999,"REV_AT_EPOCH":65194,"BSTAR":-0.00010214706,"MEAN_MOTION_DOT":-2.46e-6,"MEAN_MOTION_DDOT":0},{"OBJECT_NAME":"SL-16 R/B","OBJECT_ID":"1994-074B","EPOCH":"2026-04-20T07:28:58.137600","MEAN_MOTION":14.79451692,"ECCENTRICITY":0.00081117,"INCLINATION":97.7048,"RA_OF_ASC_NODE":139.4319,"ARG_OF_PERICENTER":87.1735,"MEAN_ANOMALY":283.6911,"EPHEMERIS_TYPE":0,"CLASSIFICATION_TYPE":"U","NORAD_CAT_ID":23343,"ELEMENT_SET_NO":999,"REV_AT_EPOCH":69340,"BSTAR":4.0943994e-5,"MEAN_MOTION_DOT":2.57e-6,"MEAN_MOTION_DDOT":0},{"OBJECT_NAME":"SL-16 R/B","OBJECT_ID":"1994-077B","EPOCH":"2026-04-20T04:13:59.443680","MEAN_MOTION":14.15569703,"ECCENTRICITY":7.725e-5,"INCLINATION":70.9817,"RA_OF_ASC_NODE":265.2056,"ARG_OF_PERICENTER":144.7666,"MEAN_ANOMALY":215.3508,"EPHEMERIS_TYPE":0,"CLASSIFICATION_TYPE":"U","NORAD_CAT_ID":23405,"ELEMENT_SET_NO":999,"REV_AT_EPOCH":62210,"BSTAR":0.00015411285,"MEAN_MOTION_DOT":2.54e-6,"MEAN_MOTION_DDOT":0},{"OBJECT_NAME":"ARIANE 40+ R/B","OBJECT_ID":"1995-021B","EPOCH":"2026-04-20T03:50:29.313600","MEAN_MOTION":14.39800389,"ECCENTRICITY":0.00070854,"INCLINATION":98.4437,"RA_OF_ASC_NODE":181.0668,"ARG_OF_PERICENTER":28.2386,"MEAN_ANOMALY":0.7345,"EPHEMERIS_TYPE":0,"CLASSIFICATION_TYPE":"U","NORAD_CAT_ID":23561,"ELEMENT_SET_NO":999,"REV_AT_EPOCH":62521,"BSTAR":7.0601333e-5,"MEAN_MOTION_DOT":1.78e-6,"MEAN_MOTION_DDOT":0},{"OBJECT_NAME":"SL-16 R/B","OBJECT_ID":"1995-058B","EPOCH":"2026-04-20T04:26:57.116256","MEAN_MOTION":14.15505003,"ECCENTRICITY":0.00107581,"INCLINATION":71.02,"RA_OF_ASC_NODE":93.1344,"ARG_OF_PERICENTER":49.1847,"MEAN_ANOMALY":311.0207,"EPHEMERIS_TYPE":0,"CLASSIFICATION_TYPE":"U","NORAD_CAT_ID":23705,"ELEMENT_SET_NO":999,"REV_AT_EPOCH":57372,"BSTAR":4.6326326e-5,"MEAN_MOTION_DOT":4.3e-7,"MEAN_MOTION_DDOT":0},{"OBJECT_NAME":"SL-16 R/B","OBJECT_ID":"1996-051B","EPOCH":"2026-04-20T04:06:41.056992","MEAN_MOTION":14.12426206,"ECCENTRICITY":0.00125311,"INCLINATION":70.7589,"RA_OF_ASC_NODE":87.4368,"ARG_OF_PERICENTER":76.8895,"MEAN_ANOMALY":283.3623,"EPHEMERIS_TYPE":0,"CLASSIFICATION_TYPE":"U","NORAD_CAT_ID":24298,"ELEMENT_SET_NO":999,"REV_AT_EPOCH":52750,"BSTAR":4.2950688e-5,"MEAN_MOTION_DOT":3.0e-7,"MEAN_MOTION_DDOT":0},{"OBJECT_NAME":"ORBVIEW 2 (SEASTAR)","OBJECT_ID":"1997-037A","EPOCH":"2026-04-20T07:24:04.783680","MEAN_MOTION":14.35522093,"ECCENTRICITY":0.00012558,"INCLINATION":98.8635,"RA_OF_ASC_NODE":275.7383,"ARG_OF_PERICENTER":317.4331,"MEAN_ANOMALY":42.6756,"EPHEMERIS_TYPE":0,"CLASSIFICATION_TYPE":"U","NORAD_CAT_ID":24883,"ELEMENT_SET_NO":999,"REV_AT_EPOCH":51444,"BSTAR":6.6127452e-5,"MEAN_MOTION_DOT":1.43e-6,"MEAN_MOTION_DDOT":0},{"OBJECT_NAME":"SL-16 R/B","OBJECT_ID":"1998-043G","EPOCH":"2026-04-20T03:04:05.071008","MEAN_MOTION":14.26058742,"ECCENTRICITY":0.00087797,"INCLINATION":98.8321,"RA_OF_ASC_NODE":63.8031,"ARG_OF_PERICENTER":252.8523,"MEAN_ANOMALY":107.1695,"EPHEMERIS_TYPE":0,"CLASSIFICATION_TYPE":"U","NORAD_CAT_ID":25400,"ELEMENT_SET_NO":999,"REV_AT_EPOCH":44489,"BSTAR":2.9123856e-5,"MEAN_MOTION_DOT":2.4e-7,"MEAN_MOTION_DDOT":0},{"OBJECT_NAME":"SL-16 R/B","OBJECT_ID":"1998-045B","EPOCH":"2026-04-20T05:55:01.986528","MEAN_MOTION":14.16198692,"ECCENTRICITY":0.00091744,"INCLINATION":71.0095,"RA_OF_ASC_NODE":94.1796,"ARG_OF_PERICENTER":309.962,"MEAN_ANOMALY":50.0697,"EPHEMERIS_TYPE":0,"CLASSIFICATION_TYPE":"U","NORAD_CAT_ID":25407,"ELEMENT_SET_NO":999,"REV_AT_EPOCH":43298,"BSTAR":-7.4123897e-5,"MEAN_MOTION_DOT":-1.95e-6,"MEAN_MOTION_DDOT":0},{"OBJECT_NAME":"ISS (ZARYA)","OBJECT_ID":"1998-067A","EPOCH":"2026-04-20T03:14:39.820704","MEAN_MOTION":15.48842238,"ECCENTRICITY":0.00066653,"INCLINATION":51.6328,"RA_OF_ASC_NODE":227.4156,"ARG_OF_PERICENTER":328.2959,"MEAN_ANOMALY":31.7627,"EPHEMERIS_TYPE":0,"CLASSIFICATION_TYPE":"U","NORAD_CAT_ID":25544,"ELEMENT_SET_NO":999,"REV_AT_EPOCH":56275,"BSTAR":0.00015271588,"MEAN_MOTION_DOT":7.929e-5,"MEAN_MOTION_DDOT":0},{"OBJECT_NAME":"CZ-4B R/B","OBJECT_ID":"1999-025C","EPOCH":"2026-04-20T01:42:20.047104","MEAN_MOTION":14.1827317,"ECCENTRICITY":0.00363454,"INCLINATION":98.6546,"RA_OF_ASC_NODE":153.3561,"ARG_OF_PERICENTER":224.5706,"MEAN_ANOMALY":165.0326,"EPHEMERIS_TYPE":0,"CLASSIFICATION_TYPE":"U","NORAD_CAT_ID":25732,"ELEMENT_SET_NO":999,"REV_AT_EPOCH":39403,"BSTAR":3.1289918e-5,"MEAN_MOTION_DOT":2.2e-7,"MEAN_MOTION_DDOT":0},{"OBJECT_NAME":"OKEAN-O","OBJECT_ID":"1999-039A","EPOCH":"2026-04-20T03:40:52.032000","MEAN_MOTION":14.80396237,"ECCENTRICITY":0.00013578,"INCLINATION":97.9365,"RA_OF_ASC_NODE":169.6058,"ARG_OF_PERICENTER":115.8346,"MEAN_ANOMALY":244.3007,"EPHEMERIS_TYPE":0,"CLASSIFICATION_TYPE":"U","NORAD_CAT_ID":25860,"ELEMENT_SET_NO":999,"REV_AT_EPOCH":44052,"BSTAR":5.8938531e-5,"MEAN_MOTION_DOT":3.98e-6,"MEAN_MOTION_DDOT":0},{"OBJECT_NAME":"SL-16 R/B","OBJECT_ID":"1999-039B","EPOCH":"2026-04-20T02:15:52.719552","MEAN_MOTION":14.81784757,"ECCENTRICITY":0.00160118,"INCLINATION":97.9887,"RA_OF_ASC_NODE":169.1111,"ARG_OF_PERICENTER":120.7922,"MEAN_ANOMALY":239.4869,"EPHEMERIS_TYPE":0,"CLASSIFICATION_TYPE":"U","NORAD_CAT_ID":25861,"ELEMENT_SET_NO":999,"REV_AT_EPOCH":44299,"BSTAR":5.4451288e-5,"MEAN_MOTION_DOT":3.77e-6,"MEAN_MOTION_DDOT":0},{"OBJECT_NAME":"DELTA 2 R/B","OBJECT_ID":"1999-041E","EPOCH":"2026-04-20T01:34:09.269184","MEAN_MOTION":14.1192107,"ECCENTRICITY":0.050252,"INCLINATION":51.7596,"RA_OF_ASC_NODE":135.9872,"ARG_OF_PERICENTER":110.4388,"MEAN_ANOMALY":255.123,"EPHEMERIS_TYPE":0,"CLASSIFICATION_TYPE":"U","NORAD_CAT_ID":25876,"ELEMENT_SET_NO":999,"REV_AT_EPOCH":36887,"BSTAR":6.8380825e-5,"MEAN_MOTION_DOT":1.74e-6,"MEAN_MOTION_DDOT":0}]
